<?xml version="1.0" encoding="UTF-8"?>
<kml xmlns="http://www.opengis.net/kml/2.2" xmlns:gx="http://www.google.com/kml/ext/2.2" xmlns:kml="http://www.opengis.net/kml/2.2" xmlns:atom="http://www.w3.org/2005/Atom">
<Document>
	<name>Native_Islands.kml</name>
	<Style id="sh_ylw-pushpin">
		<IconStyle>
			<scale>1.3</scale>
			<Icon>
				<href>http://maps.google.com/mapfiles/kml/pushpin/ylw-pushpin.png</href>
			</Icon>
			<hotSpot x="20" y="2" xunits="pixels" yunits="pixels"/>
		</IconStyle>
	</Style>
	<Folder>
		<name>Waypoints</name>
		<open>1</open>
		<Placemark>
			<name>Native island</name>
			<description><![CDATA[Location: 31.64910, -111.48372<br>
Elevation: 0.00 m<br>
Time Created: 10/28/25, 10:50:15 PM MST<br>]]></description>
			<styleUrl>#sh_ylw-pushpin</styleUrl>
			<Point>
				<coordinates>-111.48372,31.6491,0</coordinates>
			</Point>
		</Placemark>
		<Placemark>
			<name>Native island?</name>
			<description><![CDATA[Location: 31.64547, -111.47420<br>
Elevation: 0.00 m<br>
Time Created: 10/28/25, 11:00:15 PM MST<br>]]></description>
			<styleUrl>#sh_ylw-pushpin</styleUrl>
			<Point>
				<coordinates>-111.4742,31.64547,0</coordinates>
			</Point>
		</Placemark>
		<Placemark>
			<name>Eragrostis intermedia</name>
			<description><![CDATA[Location: 31.64855, -111.47800<br>
Elevation: 0.00 m<br>
Time Created: 9/14/25, 9:06:14 AM MST<br>]]></description>
			<styleUrl>#sh_ylw-pushpin</styleUrl>
			<Point>
				<coordinates>-111.478,31.64855,0</coordinates>
			</Point>
		</Placemark>
		<Placemark>
			<name>Native island</name>
			<description><![CDATA[Location: 31.64864, -111.49497<br>
Elevation: 0.00 m<br>
Time Created: 10/28/25, 10:47:59 PM MST<br>]]></description>
			<styleUrl>#sh_ylw-pushpin</styleUrl>
			<Point>
				<coordinates>-111.49497,31.64864,0</coordinates>
			</Point>
		</Placemark>
		<Placemark>
			<name>Native island?</name>
			<description><![CDATA[Location: 31.64695, -111.47275<br>
Elevation: 0.00 m<br>
Time Created: 10/28/25, 10:57:59 PM MST<br>]]></description>
			<styleUrl>#sh_ylw-pushpin</styleUrl>
			<Point>
				<coordinates>-111.47275,31.64695,0</coordinates>
			</Point>
		</Placemark>
		<Placemark>
			<name>Native island</name>
			<description><![CDATA[Location: 31.64439, -111.48676<br>
Elevation: 0.00 m<br>
Time Created: 10/28/25, 9:17:17 PM MST<br>]]></description>
			<styleUrl>#sh_ylw-pushpin</styleUrl>
			<Point>
				<coordinates>-111.48676,31.64439,0</coordinates>
			</Point>
		</Placemark>
		<Placemark>
			<name>Sacaton</name>
			<description><![CDATA[Location: 31.64407, -111.48025<br>
Elevation: 0.00 m<br>
Time Created: 10/28/25, 11:03:59 PM MST<br>]]></description>
			<styleUrl>#sh_ylw-pushpin</styleUrl>
			<Point>
				<coordinates>-111.48025,31.64407,0</coordinates>
			</Point>
		</Placemark>
		<Placemark>
			<name>Native island-ish</name>
			<description><![CDATA[Location: 31.64503, -111.49150<br>
Elevation: 0.00 m<br>
Time Created: 10/28/25, 9:18:50 PM MST<br>]]></description>
			<styleUrl>#sh_ylw-pushpin</styleUrl>
			<Point>
				<coordinates>-111.4915,31.64503,0</coordinates>
			</Point>
		</Placemark>
		<Placemark>
			<name>Native island</name>
			<description><![CDATA[Location: 31.64853, -111.48279<br>
Elevation: 0.00 m<br>
Time Created: 10/28/25, 10:52:08 PM MST<br>]]></description>
			<styleUrl>#sh_ylw-pushpin</styleUrl>
			<Point>
				<coordinates>-111.48279,31.64853,0</coordinates>
			</Point>
		</Placemark>
		<atom:link rel="app" href="https://www.google.com/earth/about/versions/#earth-pro" title="Google Earth Pro 7.3.7.1155"></atom:link>
	</Folder>
</Document>
</kml>
